FUNCUBE-1 (AO-73)       
1 39444U 13066AE  25064.83968640  .00014332  00000+0  11392-2 0  9991
2 39444  97.7559  26.6676 0041429 352.7651   7.2969 14.99867244609226
UWE-3                   
1 39446U 13066AG  25064.85432713  .00008287  00000+0  81101-3 0  9990
2 39446  97.8134  16.4604 0056876  76.9004 283.8554 14.91340594607636
BRITE-CA1 (TORONTO)     
1 40020U 14033L   25064.96175163  .00001680  00000+0  26773-3 0  9994
2 40020  97.9084 199.7721 0080178 336.3041  23.4482 14.71166101573449
DUCHIFAT-1              
1 40021U 14033M   25064.91626418  .00027787  00000+0  11991-2 0  9995
2 40021  98.1024  71.3243 0006934 293.0512  66.9991 15.22478031583736
NANOSATC-BR1            
1 40024U 14033Q   25064.87970832  .00018482  00000+0  10062-2 0  9995
2 40024  98.0896  56.4219 0005879  32.9341 327.2255 15.14480292582704
QB50P1                  
1 40025U 14033R   25064.88467432  .00014540  00000+0  94928-3 0  9999
2 40025  98.0763  42.3631 0012118  30.2631 329.9293 15.07902971582208
QB50P2                  
1 40032U 14033Y   25065.12171564  .00012591  00000+0  86606-3 0  9991
2 40032  98.0344  32.3128 0007895 337.1406  22.9467 15.06036142582510
PERSEUS-M2              
1 40037U 14033AD  25065.09574910  .00003660  00000+0  35675-3 0  9991
2 40037  97.9473   3.5725 0013901  55.2241 305.0284 14.93044742581374
PERSEUS-M1              
1 40039U 14033AF  25064.81166396  .00004062  00000+0  39593-3 0  9997
2 40039  97.9226 358.5541 0013653  55.0361 305.2138 14.92980221580689
POLYITAN-1              
1 40042U 14033AJ  25064.91256166  .00021286  00000+0  11598-2 0  9998
2 40042  98.0993  48.6823 0009344 343.4701  16.6223 15.14397143582792
TIGRISAT                
1 40043U 14033AK  25064.90281588  .00005114  00000+0  63394-3 0  9998
2 40043  97.7213 223.3748 0052628 168.3368 191.9078 14.82110007576185
AEROCUBE 6A             
1 40045U 14033AM  25064.93167473  .00011219  00000+0  11361-2 0  9998
2 40045  97.6834 235.5973 0044978 137.9066 222.5622 14.90344988576683
AEROCUBE 6B             
1 40046U 14033AN  25064.73072755  .00011672  00000+0  11514-2 0  9998
2 40046  97.6812 234.3924 0043627 132.6248 227.8662 14.91422203576733
CANX-4                  
1 40055U 14034C   25065.09076058  .00001916  00000+0  26162-3 0  9995
2 40055  98.3746 276.8310 0014257  74.8898 285.3889 14.79810487575293
CANX-5                  
1 40056U 14034D   25064.55308644  .00002027  00000+0  27630-3 0  9990
2 40056  98.3749 276.2876 0014248  76.6522 283.6276 14.79821242575216
UKUBE-1                 
1 40074U 14037F   25065.11547800  .00013211  00000+0  99468-3 0  9990
2 40074  98.3847  19.3275 0002016  66.7687 293.3747 15.02656580577992
BRITE-PL2 (HEWELIUSZ)   
1 40119U 14049B   25064.86736309  .00003300  00000+0  33255-3 0  9998
2 40119  97.8825 169.9948 0014314 218.1191 141.9016 14.91770510571558
AEROCUBE 5C             
1 40965U 15058B   25065.04246820  .00005126  00000+0  43815-3 0  9994
2 40965  64.7675 275.0010 0178022 229.9083 128.6308 14.87259937295918
AEROCUBE 7              
1 40966U 15058C   25064.97385228  .00007450  00000+0  59475-3 0  9993
2 40966  64.7641 265.9055 0170713 229.7051 128.9037 14.90180102296061
FOX-1A (AO-85)          
1 40967U 15058D   25064.93313606  .00004547  00000+0  39989-3 0  9993
2 40967  64.7757 290.1521 0174927 225.3629 133.3108 14.86751255 43845
SINOD-D 1               
1 40968U 15058E   25064.98091923  .00006803  00000+0  55395-3 0  9990
2 40968  64.7756 279.4863 0166010 224.3474 134.4243 14.90095289 46742
SNAP-3 ALICE            
1 40970U 15058G   25064.80406061  .00042632  00000+0  20011-2 0  9993
2 40970  64.7645 215.4075 0112855 223.9476 135.2632 15.13852064 45133
LMRST-SAT               
1 40971U 15058H   25064.99210934  .00004493  00000+0  39484-3 0  9994
2 40971  64.7756 285.6017 0176881 226.7533 131.8700 14.86568644 43858
SNAP-3 EDDIE            
1 40972U 15058J   25064.74541754  .00043677  00000+0  20228-2 0  9997
2 40972  64.7622 208.4170 0113270 224.9222 134.2695 15.14252098 47233
PROPCUBE 3              
1 40973U 15058K   25065.17103197  .00006454  00000+0  52883-3 0  9996
2 40973  64.7688 269.9419 0172111 228.3218 130.3057 14.89216776 44977
BISONSAT                
1 40974U 15058L   25064.82018291  .00024086  00000+0  14752-2 0  9991
2 40974  64.7637 232.7546 0139763 226.5943 132.3473 15.02300471 44912
SNAP-3 JIMI             
1 40975U 15058M   25064.86652066  .00012091  00000+0  87926-3 0  9997
2 40975  64.7666 253.6878 0158800 227.5263 131.2340 14.94517478 44035
PROPCUBE 1 (FLORA)      
1 40976U 15058N   25065.06925102  .00004057  00000+0  37152-3 0  9994
2 40976  64.7753 302.3297 0176146 228.2522 130.3416 14.85289611 46636
SINOD-D 3               
1 40977U 15058P   25065.00298342  .00005615  00000+0  47726-3 0  9997
2 40977  64.7733 292.5409 0167253 227.5271 131.1604 14.88599246 44921
HORYU-4                 
1 41340U 16012D   25064.64737066  .00030184  00000+0  97871-3 0  9998
2 41340  31.0001  54.4473 0007342 157.5505 202.5461 15.30762142498046
RAVAN                   
1 41849U 16067B   25064.61044201  .00021357  00000+0  82525-3 0  9993
2 41849  98.0548 265.9036 0009771 208.7398 151.3301 15.26233680455682
CELTEE 1                
1 41850U 16067C   25065.05551254  .00009241  00000+0  53000-3 0  9999
2 41850  98.1109 255.5031 0001635  56.6712 303.4673 15.12815561454937
OPTICUBE 04             
1 41851U 16067D   25064.53370487  .00005208  00000+0  35834-3 0  9993
2 41851  98.0909 247.4576 0016039 258.6784 101.2640 15.06277456454538
AEROCUBE 8D             
1 41852U 16067E   25064.46583497  .00014088  00000+0  75042-3 0  9994
2 41852  98.1143 255.5580 0003850 311.8241  48.2660 15.15333082454868
AEROCUBE 8C             
1 41853U 16067F   25064.47843090  .00014117  00000+0  75028-3 0  9991
2 41853  98.0972 253.5492 0006138 231.6646 128.4033 15.15400337454850
PROMETHEUS 2-1          
1 41854U 16067G   25064.52774654  .00052927  00000+0  14230-2 0  9995
2 41854  98.0907 267.3280 0007982 234.6602 125.3895 15.37689770455598
PROMETHEUS 2-3          
1 41855U 16067H   25064.53528352  .00049314  00000+0  13294-2 0  9994
2 41855  98.0848 266.5783 0006931 244.7488 115.3037 15.37633430455598
CORVUS BC2              
1 42846U 17042X   25065.07271380  .00005631  00000+0  43625-3 0  9991
2 42846  97.3708 242.3514 0011701 260.9226  99.0675 15.01746054416693
CORVUS BC1              
1 42847U 17042Y   25065.07250676  .00005435  00000+0  41878-3 0  9997
2 42847  97.3732 242.8085 0010993 235.8014 124.2170 15.01970257416715
MIRATA                  
1 43015U 17073C   25065.16859420  .00058936  00000+0  14659-2 0  9991
2 43015  97.5554 316.7145 0112078  69.8059 291.5195 15.33768089396104
MAKERSAT 0              
1 43016U 17073D   25064.56181143  .00020706  00000+0  90557-3 0  9991
2 43016  97.5346 303.8545 0159835 111.7068 250.1264 15.11225831395212
SIRION PATHFINDER-2     
1 43759U 18099B   25064.71026907  .00008567  00000+0  55570-3 0  9994
2 43759  97.4907 119.9657 0011257 113.8821 246.3588 15.08271717341850
CORVUS BC4              
1 43767U 18099K   25064.71700571  .00006595  00000+0  44463-3 0  9997
2 43767  97.4735 116.2238 0009971 163.5460 196.6093 15.06942121341719
MOVE-II                 
1 43780U 18099Y   25065.16882613  .00076179  00000+0  15802-2 0  9999
2 43780  97.4785 135.9309 0004244 149.4805 210.6692 15.45435837342931
SPACEBEE-7              
1 43816U 18099BL  25064.63686556  .00035794  00000+0  12874-2 0  9992
2 43816  97.5079 133.5316 0007663 101.6183 258.5917 15.28502571342108
SHIELDS 1               
1 43850U 18104B   25064.64274464  .00032837  00000+0  51622-3 0  9999
2 43850  85.0141 103.7446 0009882 143.5002 216.6932 15.53412987346522
SONATE                  
1 44400U 19038Q   25064.57158966  .00087973  00000+0  99380-3 0  9992
2 44400  97.7082  81.0512 0007122 224.1007 135.9682 15.62160603314453
DUCHIFAT-3              
1 44854U 19089C   25064.84349892  .00048071  00000+0  13318-2 0  9993
2 44854  36.9466 239.4846 0005435 103.6626 256.4732 15.35972535288235
M2 PATHFINDER           
1 45727U 20037E   25065.05743980  .00006472  00000+0  51092-3 0  9999
2 45727  97.8018 247.0838 0011966 305.7120  54.2990 15.01001989255176
NETSAT-4                
1 46504U 20068U   25064.90767610  .00019801  00000+0  76580-3 0  9995
2 46504  97.8382  37.6519 0008822 157.1910 202.9721 15.26224809243936
NETSAT-3                
1 46505U 20068V   25065.14536106  .00018108  00000+0  72379-3 0  9998
2 46505  97.8370  37.0492 0007909 166.5071 193.6378 15.25150498243941
NETSAT-1                
1 46506U 20068W   25064.85879091  .00015924  00000+0  71358-3 0  9998
2 46506  97.8398  35.2119 0006563 180.6024 179.5203 15.21312448243792
NETSAT-2                
1 46507U 20068X   25064.87678892  .00019697  00000+0  76810-3 0  9996
2 46507  97.8374  37.1617 0005672 177.4363 182.6904 15.25971531243871
WILDTRACKCUBE-SIMBA     
1 47941U 21022K   25065.12044653  .00031370  00000+0  84083-3 0  9994
2 47941  97.4325 327.9415 0008872 305.4199  54.6217 15.37895591218485
GRBALPHA                
1 47959U 21022AD  25065.08318536  .00096446  00000+0  13331-2 0  9994
2 47959  97.4286 333.4448 0003431 283.2166  76.8706 15.56811762217668
LEDSAT                  
1 49069U 21073D   25065.19654565  .00048813  00000+0  96949-3 0  9993
2 49069  97.3991 143.6984 0011925  70.5178 289.7359 15.46761339196621
ROBUSTA-1F (MTCUBE 2)   
1 53109U 22080E   25064.09638521 -.00000003  00000+0  00000+0 0  9993
2 53109  70.1202 101.3904 0008421  28.3711 331.7406  6.42584319 61921
SITRO-AIS 5 (KATYS)     
1 57176U 23091L   25065.14186508  .00012164  00000+0  61809-3 0  9992
2 57176  97.5727 122.0473 0013630 303.1358  56.8567 15.16943475 93093
SITRO-AIS 6 (CHIRKIN)   
1 57192U 23091AC  25065.12433531  .00011632  00000+0  59229-3 0  9991
2 57192  97.5723 122.0538 0013589 302.7699  57.2224 15.16882887 93099
